{
  "norad_id": 58941,
  "name": "STARLINK-31345",
  "history": [
    {
      "epoch": "2026-03-28T15:33:06.512256Z",
      "apogee_km": 476.6410830121504,
      "perigee_km": 473.8586079528859,
      "latitude_deg": -2.32973298151716e-05,
      "longitude_deg": 162.0289223160314,
      "height_km": 476.18085675769663,
      "semi_major_axis_km": 6853.386845482518,
      "eccentricity": 0.000203,
      "inclination_deg": 53.161,
      "raan_deg": 221.3715,
      "arg_perigee_deg": 91.3967,
      "mean_anomaly_deg": 268.7266,
      "mean_motion_rev_day": 15.30188353
    }
  ]
}