{"fetched_at":"2026-03-29T16:36:15Z","count":15609,"tles":[{"name":"STARLINK-31345","line1":"1 58941U 24027L   26087.64799204  .00002662  00000+0  10200-3 0  9997","line2":"2 58941  53.1610 221.3715 0002030  91.3967 268.7266 15.30188353120238","category":"Starlink"}]}